{
  "type": "FeatureCollection",
  "name": "Grand Isle representative ground-elevation sample",
  "metadata": {
    "experiment": "viewer-independent USGS 3DEP ground-elevation point sample",
    "buildingSampleCount": 12,
    "facilitySampleCount": 4,
    "availableCount": 16,
    "source": "USGS 3D Elevation Program (3DEP) Elevation Point Query Service",
    "sourceDataset": "USGS 3DEP dynamic elevation service",
    "generatedAt": "2026-08-26T20:38:16.757Z",
    "limitation": "Estimated/interpolated ground elevation from the USGS 3DEP elevation service at one representative coordinate. It is not flood depth, building height, floor or finished-floor elevation, structural elevation, FEMA Base Flood Elevation, vulnerability, safety, or current/future inundation."
  },
  "features": [
    {
      "type": "Feature",
      "properties": {
        "entity_key": "property:GI-0064",
        "entity_kind": "building",
        "entity_id": "GI-0064",
        "display_label": "Structure near 29.2391, -89.9901",
        "property_id": "GI-0064",
        "facility_id": null,
        "osm_element_type": "way",
        "osm_id": 1066811684,
        "query_longitude": -89.99006075,
        "query_latitude": 29.23907065,
        "representative_point_method": "area-centroid-inside",
        "elevation_status": "available",
        "ground_elevation_m": 0.299433321,
        "elevation_units": "meters",
        "elevation_source": "USGS 3D Elevation Program (3DEP) Elevation Point Query Service",
        "source_dataset": "USGS 3DEP dynamic elevation service",
        "elevation_service_endpoint": "https://epqs.nationalmap.gov/v1/json",
        "elevation_service_version": "v1",
        "query_wkid": 4326,
        "elevation_raster_id": 113397,
        "service_reported_resolution": 1,
        "resolution_note": "Raw resolution reported by EPQS; the response schema does not name a resolution unit or human-readable source work unit.",
        "source_acquisition_date": "2021-10-02",
        "source_acquisition_date_raw": "10/2/2021",
        "retrieved_at": "2026-08-26T20:37:16.377Z",
        "horizontal_reference_note": "Existing OSM longitude/latitude was submitted with WKID 4326. EPQS documentation describes point inputs as NAD 1983; no additional local datum transformation was applied in this experiment.",
        "vertical_reference_note": "EPQS does not return a vertical datum per point. USGS states that CONUS 3DEP DEMs are typically NAVD88, but the datum is not asserted here without work-unit or product metadata verification.",
        "accuracy_note": "USGS describes EPQS values as interpolated rather than surveyed and reports an overall service RMSE of 0.53 m; local accuracy varies with source data.",
        "interpretation_note": "Estimated/interpolated ground elevation from the USGS 3DEP elevation service at one representative coordinate. It is not flood depth, building height, floor or finished-floor elevation, structural elevation, FEMA Base Flood Elevation, vulnerability, safety, or current/future inundation.",
        "unavailable_reason": null
      },
      "geometry": {
        "type": "Point",
        "coordinates": [
          -89.99006075,
          29.23907065
        ]
      }
    },
    {
      "type": "Feature",
      "properties": {
        "entity_key": "property:GI-0084",
        "entity_kind": "building",
        "entity_id": "GI-0084",
        "display_label": "Structure near 29.2350, -89.9892",
        "property_id": "GI-0084",
        "facility_id": null,
        "osm_element_type": "way",
        "osm_id": 1066811956,
        "query_longitude": -89.98919717741603,
        "query_latitude": 29.23500250741307,
        "representative_point_method": "area-centroid-inside",
        "elevation_status": "available",
        "ground_elevation_m": 1.294182062,
        "elevation_units": "meters",
        "elevation_source": "USGS 3D Elevation Program (3DEP) Elevation Point Query Service",
        "source_dataset": "USGS 3DEP dynamic elevation service",
        "elevation_service_endpoint": "https://epqs.nationalmap.gov/v1/json",
        "elevation_service_version": "v1",
        "query_wkid": 4326,
        "elevation_raster_id": 113397,
        "service_reported_resolution": 1,
        "resolution_note": "Raw resolution reported by EPQS; the response schema does not name a resolution unit or human-readable source work unit.",
        "source_acquisition_date": "2021-10-02",
        "source_acquisition_date_raw": "10/2/2021",
        "retrieved_at": "2026-08-26T20:37:24.309Z",
        "horizontal_reference_note": "Existing OSM longitude/latitude was submitted with WKID 4326. EPQS documentation describes point inputs as NAD 1983; no additional local datum transformation was applied in this experiment.",
        "vertical_reference_note": "EPQS does not return a vertical datum per point. USGS states that CONUS 3DEP DEMs are typically NAVD88, but the datum is not asserted here without work-unit or product metadata verification.",
        "accuracy_note": "USGS describes EPQS values as interpolated rather than surveyed and reports an overall service RMSE of 0.53 m; local accuracy varies with source data.",
        "interpretation_note": "Estimated/interpolated ground elevation from the USGS 3DEP elevation service at one representative coordinate. It is not flood depth, building height, floor or finished-floor elevation, structural elevation, FEMA Base Flood Elevation, vulnerability, safety, or current/future inundation.",
        "unavailable_reason": null
      },
      "geometry": {
        "type": "Point",
        "coordinates": [
          -89.98919717741603,
          29.23500250741307
        ]
      }
    },
    {
      "type": "Feature",
      "properties": {
        "entity_key": "property:GI-0276",
        "entity_kind": "building",
        "entity_id": "GI-0276",
        "display_label": "Structure near 29.2440, -89.9887",
        "property_id": "GI-0276",
        "facility_id": null,
        "osm_element_type": "way",
        "osm_id": 1066812429,
        "query_longitude": -89.98866556868896,
        "query_latitude": 29.24403886214058,
        "representative_point_method": "area-centroid-inside",
        "elevation_status": "available",
        "ground_elevation_m": 0.616662681,
        "elevation_units": "meters",
        "elevation_source": "USGS 3D Elevation Program (3DEP) Elevation Point Query Service",
        "source_dataset": "USGS 3DEP dynamic elevation service",
        "elevation_service_endpoint": "https://epqs.nationalmap.gov/v1/json",
        "elevation_service_version": "v1",
        "query_wkid": 4326,
        "elevation_raster_id": 113397,
        "service_reported_resolution": 1,
        "resolution_note": "Raw resolution reported by EPQS; the response schema does not name a resolution unit or human-readable source work unit.",
        "source_acquisition_date": "2021-10-02",
        "source_acquisition_date_raw": "10/2/2021",
        "retrieved_at": "2026-08-26T20:37:24.729Z",
        "horizontal_reference_note": "Existing OSM longitude/latitude was submitted with WKID 4326. EPQS documentation describes point inputs as NAD 1983; no additional local datum transformation was applied in this experiment.",
        "vertical_reference_note": "EPQS does not return a vertical datum per point. USGS states that CONUS 3DEP DEMs are typically NAVD88, but the datum is not asserted here without work-unit or product metadata verification.",
        "accuracy_note": "USGS describes EPQS values as interpolated rather than surveyed and reports an overall service RMSE of 0.53 m; local accuracy varies with source data.",
        "interpretation_note": "Estimated/interpolated ground elevation from the USGS 3DEP elevation service at one representative coordinate. It is not flood depth, building height, floor or finished-floor elevation, structural elevation, FEMA Base Flood Elevation, vulnerability, safety, or current/future inundation.",
        "unavailable_reason": null
      },
      "geometry": {
        "type": "Point",
        "coordinates": [
          -89.98866556868896,
          29.24403886214058
        ]
      }
    },
    {
      "type": "Feature",
      "properties": {
        "entity_key": "property:GI-0266",
        "entity_kind": "building",
        "entity_id": "GI-0266",
        "display_label": "Structure near 29.2391, -89.9881",
        "property_id": "GI-0266",
        "facility_id": null,
        "osm_element_type": "way",
        "osm_id": 1066812418,
        "query_longitude": -89.98805254999999,
        "query_latitude": 29.239054099999993,
        "representative_point_method": "area-centroid-inside",
        "elevation_status": "available",
        "ground_elevation_m": 0.487099737,
        "elevation_units": "meters",
        "elevation_source": "USGS 3D Elevation Program (3DEP) Elevation Point Query Service",
        "source_dataset": "USGS 3DEP dynamic elevation service",
        "elevation_service_endpoint": "https://epqs.nationalmap.gov/v1/json",
        "elevation_service_version": "v1",
        "query_wkid": 4326,
        "elevation_raster_id": 113397,
        "service_reported_resolution": 1,
        "resolution_note": "Raw resolution reported by EPQS; the response schema does not name a resolution unit or human-readable source work unit.",
        "source_acquisition_date": "2021-10-02",
        "source_acquisition_date_raw": "10/2/2021",
        "retrieved_at": "2026-08-26T20:37:29.960Z",
        "horizontal_reference_note": "Existing OSM longitude/latitude was submitted with WKID 4326. EPQS documentation describes point inputs as NAD 1983; no additional local datum transformation was applied in this experiment.",
        "vertical_reference_note": "EPQS does not return a vertical datum per point. USGS states that CONUS 3DEP DEMs are typically NAVD88, but the datum is not asserted here without work-unit or product metadata verification.",
        "accuracy_note": "USGS describes EPQS values as interpolated rather than surveyed and reports an overall service RMSE of 0.53 m; local accuracy varies with source data.",
        "interpretation_note": "Estimated/interpolated ground elevation from the USGS 3DEP elevation service at one representative coordinate. It is not flood depth, building height, floor or finished-floor elevation, structural elevation, FEMA Base Flood Elevation, vulnerability, safety, or current/future inundation.",
        "unavailable_reason": null
      },
      "geometry": {
        "type": "Point",
        "coordinates": [
          -89.98805254999999,
          29.239054099999993
        ]
      }
    },
    {
      "type": "Feature",
      "properties": {
        "entity_key": "property:GI-0133",
        "entity_kind": "building",
        "entity_id": "GI-0133",
        "display_label": "Structure near 29.2404, -89.9868",
        "property_id": "GI-0133",
        "facility_id": null,
        "osm_element_type": "way",
        "osm_id": 1066812248,
        "query_longitude": -89.98684475,
        "query_latitude": 29.24040465,
        "representative_point_method": "area-centroid-inside",
        "elevation_status": "available",
        "ground_elevation_m": 0.163653076,
        "elevation_units": "meters",
        "elevation_source": "USGS 3D Elevation Program (3DEP) Elevation Point Query Service",
        "source_dataset": "USGS 3DEP dynamic elevation service",
        "elevation_service_endpoint": "https://epqs.nationalmap.gov/v1/json",
        "elevation_service_version": "v1",
        "query_wkid": 4326,
        "elevation_raster_id": 113397,
        "service_reported_resolution": 1,
        "resolution_note": "Raw resolution reported by EPQS; the response schema does not name a resolution unit or human-readable source work unit.",
        "source_acquisition_date": "2021-10-02",
        "source_acquisition_date_raw": "10/2/2021",
        "retrieved_at": "2026-08-26T20:37:31.006Z",
        "horizontal_reference_note": "Existing OSM longitude/latitude was submitted with WKID 4326. EPQS documentation describes point inputs as NAD 1983; no additional local datum transformation was applied in this experiment.",
        "vertical_reference_note": "EPQS does not return a vertical datum per point. USGS states that CONUS 3DEP DEMs are typically NAVD88, but the datum is not asserted here without work-unit or product metadata verification.",
        "accuracy_note": "USGS describes EPQS values as interpolated rather than surveyed and reports an overall service RMSE of 0.53 m; local accuracy varies with source data.",
        "interpretation_note": "Estimated/interpolated ground elevation from the USGS 3DEP elevation service at one representative coordinate. It is not flood depth, building height, floor or finished-floor elevation, structural elevation, FEMA Base Flood Elevation, vulnerability, safety, or current/future inundation.",
        "unavailable_reason": null
      },
      "geometry": {
        "type": "Point",
        "coordinates": [
          -89.98684475,
          29.24040465
        ]
      }
    },
    {
      "type": "Feature",
      "properties": {
        "entity_key": "property:GI-0221",
        "entity_kind": "building",
        "entity_id": "GI-0221",
        "display_label": "Structure near 29.2402, -89.9859",
        "property_id": "GI-0221",
        "facility_id": null,
        "osm_element_type": "way",
        "osm_id": 1066812373,
        "query_longitude": -89.9859115,
        "query_latitude": 29.24020355,
        "representative_point_method": "area-centroid-inside",
        "elevation_status": "available",
        "ground_elevation_m": 0.160854235,
        "elevation_units": "meters",
        "elevation_source": "USGS 3D Elevation Program (3DEP) Elevation Point Query Service",
        "source_dataset": "USGS 3DEP dynamic elevation service",
        "elevation_service_endpoint": "https://epqs.nationalmap.gov/v1/json",
        "elevation_service_version": "v1",
        "query_wkid": 4326,
        "elevation_raster_id": 113397,
        "service_reported_resolution": 1,
        "resolution_note": "Raw resolution reported by EPQS; the response schema does not name a resolution unit or human-readable source work unit.",
        "source_acquisition_date": "2021-10-02",
        "source_acquisition_date_raw": "10/2/2021",
        "retrieved_at": "2026-08-26T20:37:35.024Z",
        "horizontal_reference_note": "Existing OSM longitude/latitude was submitted with WKID 4326. EPQS documentation describes point inputs as NAD 1983; no additional local datum transformation was applied in this experiment.",
        "vertical_reference_note": "EPQS does not return a vertical datum per point. USGS states that CONUS 3DEP DEMs are typically NAVD88, but the datum is not asserted here without work-unit or product metadata verification.",
        "accuracy_note": "USGS describes EPQS values as interpolated rather than surveyed and reports an overall service RMSE of 0.53 m; local accuracy varies with source data.",
        "interpretation_note": "Estimated/interpolated ground elevation from the USGS 3DEP elevation service at one representative coordinate. It is not flood depth, building height, floor or finished-floor elevation, structural elevation, FEMA Base Flood Elevation, vulnerability, safety, or current/future inundation.",
        "unavailable_reason": null
      },
      "geometry": {
        "type": "Point",
        "coordinates": [
          -89.9859115,
          29.24020355
        ]
      }
    },
    {
      "type": "Feature",
      "properties": {
        "entity_key": "property:GI-0191",
        "entity_kind": "building",
        "entity_id": "GI-0191",
        "display_label": "Structure near 29.2388, -89.9845",
        "property_id": "GI-0191",
        "facility_id": null,
        "osm_element_type": "way",
        "osm_id": 1066812343,
        "query_longitude": -89.98453948526341,
        "query_latitude": 29.238751333754504,
        "representative_point_method": "area-centroid-inside",
        "elevation_status": "available",
        "ground_elevation_m": 1.004855394,
        "elevation_units": "meters",
        "elevation_source": "USGS 3D Elevation Program (3DEP) Elevation Point Query Service",
        "source_dataset": "USGS 3DEP dynamic elevation service",
        "elevation_service_endpoint": "https://epqs.nationalmap.gov/v1/json",
        "elevation_service_version": "v1",
        "query_wkid": 4326,
        "elevation_raster_id": 113397,
        "service_reported_resolution": 1,
        "resolution_note": "Raw resolution reported by EPQS; the response schema does not name a resolution unit or human-readable source work unit.",
        "source_acquisition_date": "2021-10-02",
        "source_acquisition_date_raw": "10/2/2021",
        "retrieved_at": "2026-08-26T20:37:37.188Z",
        "horizontal_reference_note": "Existing OSM longitude/latitude was submitted with WKID 4326. EPQS documentation describes point inputs as NAD 1983; no additional local datum transformation was applied in this experiment.",
        "vertical_reference_note": "EPQS does not return a vertical datum per point. USGS states that CONUS 3DEP DEMs are typically NAVD88, but the datum is not asserted here without work-unit or product metadata verification.",
        "accuracy_note": "USGS describes EPQS values as interpolated rather than surveyed and reports an overall service RMSE of 0.53 m; local accuracy varies with source data.",
        "interpretation_note": "Estimated/interpolated ground elevation from the USGS 3DEP elevation service at one representative coordinate. It is not flood depth, building height, floor or finished-floor elevation, structural elevation, FEMA Base Flood Elevation, vulnerability, safety, or current/future inundation.",
        "unavailable_reason": null
      },
      "geometry": {
        "type": "Point",
        "coordinates": [
          -89.98453948526341,
          29.238751333754504
        ]
      }
    },
    {
      "type": "Feature",
      "properties": {
        "entity_key": "property:GI-0207",
        "entity_kind": "building",
        "entity_id": "GI-0207",
        "display_label": "Structure near 29.2397, -89.9831",
        "property_id": "GI-0207",
        "facility_id": null,
        "osm_element_type": "way",
        "osm_id": 1066812359,
        "query_longitude": -89.98310095001095,
        "query_latitude": 29.23966878333663,
        "representative_point_method": "area-centroid-inside",
        "elevation_status": "available",
        "ground_elevation_m": 0.843117237,
        "elevation_units": "meters",
        "elevation_source": "USGS 3D Elevation Program (3DEP) Elevation Point Query Service",
        "source_dataset": "USGS 3DEP dynamic elevation service",
        "elevation_service_endpoint": "https://epqs.nationalmap.gov/v1/json",
        "elevation_service_version": "v1",
        "query_wkid": 4326,
        "elevation_raster_id": 101773,
        "service_reported_resolution": 1,
        "resolution_note": "Raw resolution reported by EPQS; the response schema does not name a resolution unit or human-readable source work unit.",
        "source_acquisition_date": "2021-10-02",
        "source_acquisition_date_raw": "10/2/2021",
        "retrieved_at": "2026-08-26T20:37:38.249Z",
        "horizontal_reference_note": "Existing OSM longitude/latitude was submitted with WKID 4326. EPQS documentation describes point inputs as NAD 1983; no additional local datum transformation was applied in this experiment.",
        "vertical_reference_note": "EPQS does not return a vertical datum per point. USGS states that CONUS 3DEP DEMs are typically NAVD88, but the datum is not asserted here without work-unit or product metadata verification.",
        "accuracy_note": "USGS describes EPQS values as interpolated rather than surveyed and reports an overall service RMSE of 0.53 m; local accuracy varies with source data.",
        "interpretation_note": "Estimated/interpolated ground elevation from the USGS 3DEP elevation service at one representative coordinate. It is not flood depth, building height, floor or finished-floor elevation, structural elevation, FEMA Base Flood Elevation, vulnerability, safety, or current/future inundation.",
        "unavailable_reason": null
      },
      "geometry": {
        "type": "Point",
        "coordinates": [
          -89.98310095001095,
          29.23966878333663
        ]
      }
    },
    {
      "type": "Feature",
      "properties": {
        "entity_key": "property:GI-0301",
        "entity_kind": "building",
        "entity_id": "GI-0301",
        "display_label": "Structure near 29.2403, -89.9819",
        "property_id": "GI-0301",
        "facility_id": null,
        "osm_element_type": "way",
        "osm_id": 1066812454,
        "query_longitude": -89.98186862678835,
        "query_latitude": 29.24029842842956,
        "representative_point_method": "area-centroid-inside",
        "elevation_status": "available",
        "ground_elevation_m": 0.830610812,
        "elevation_units": "meters",
        "elevation_source": "USGS 3D Elevation Program (3DEP) Elevation Point Query Service",
        "source_dataset": "USGS 3DEP dynamic elevation service",
        "elevation_service_endpoint": "https://epqs.nationalmap.gov/v1/json",
        "elevation_service_version": "v1",
        "query_wkid": 4326,
        "elevation_raster_id": 101773,
        "service_reported_resolution": 1,
        "resolution_note": "Raw resolution reported by EPQS; the response schema does not name a resolution unit or human-readable source work unit.",
        "source_acquisition_date": "2021-10-02",
        "source_acquisition_date_raw": "10/2/2021",
        "retrieved_at": "2026-08-26T20:37:40.425Z",
        "horizontal_reference_note": "Existing OSM longitude/latitude was submitted with WKID 4326. EPQS documentation describes point inputs as NAD 1983; no additional local datum transformation was applied in this experiment.",
        "vertical_reference_note": "EPQS does not return a vertical datum per point. USGS states that CONUS 3DEP DEMs are typically NAVD88, but the datum is not asserted here without work-unit or product metadata verification.",
        "accuracy_note": "USGS describes EPQS values as interpolated rather than surveyed and reports an overall service RMSE of 0.53 m; local accuracy varies with source data.",
        "interpretation_note": "Estimated/interpolated ground elevation from the USGS 3DEP elevation service at one representative coordinate. It is not flood depth, building height, floor or finished-floor elevation, structural elevation, FEMA Base Flood Elevation, vulnerability, safety, or current/future inundation.",
        "unavailable_reason": null
      },
      "geometry": {
        "type": "Point",
        "coordinates": [
          -89.98186862678835,
          29.24029842842956
        ]
      }
    },
    {
      "type": "Feature",
      "properties": {
        "entity_key": "property:GI-0181",
        "entity_kind": "building",
        "entity_id": "GI-0181",
        "display_label": "Structure near 29.2425, -89.9806",
        "property_id": "GI-0181",
        "facility_id": null,
        "osm_element_type": "way",
        "osm_id": 1066812322,
        "query_longitude": -89.98064839999999,
        "query_latitude": 29.2425482,
        "representative_point_method": "area-centroid-inside",
        "elevation_status": "available",
        "ground_elevation_m": 0.493896872,
        "elevation_units": "meters",
        "elevation_source": "USGS 3D Elevation Program (3DEP) Elevation Point Query Service",
        "source_dataset": "USGS 3DEP dynamic elevation service",
        "elevation_service_endpoint": "https://epqs.nationalmap.gov/v1/json",
        "elevation_service_version": "v1",
        "query_wkid": 4326,
        "elevation_raster_id": 101773,
        "service_reported_resolution": 1,
        "resolution_note": "Raw resolution reported by EPQS; the response schema does not name a resolution unit or human-readable source work unit.",
        "source_acquisition_date": "2021-10-02",
        "source_acquisition_date_raw": "10/2/2021",
        "retrieved_at": "2026-08-26T20:37:44.951Z",
        "horizontal_reference_note": "Existing OSM longitude/latitude was submitted with WKID 4326. EPQS documentation describes point inputs as NAD 1983; no additional local datum transformation was applied in this experiment.",
        "vertical_reference_note": "EPQS does not return a vertical datum per point. USGS states that CONUS 3DEP DEMs are typically NAVD88, but the datum is not asserted here without work-unit or product metadata verification.",
        "accuracy_note": "USGS describes EPQS values as interpolated rather than surveyed and reports an overall service RMSE of 0.53 m; local accuracy varies with source data.",
        "interpretation_note": "Estimated/interpolated ground elevation from the USGS 3DEP elevation service at one representative coordinate. It is not flood depth, building height, floor or finished-floor elevation, structural elevation, FEMA Base Flood Elevation, vulnerability, safety, or current/future inundation.",
        "unavailable_reason": null
      },
      "geometry": {
        "type": "Point",
        "coordinates": [
          -89.98064839999999,
          29.2425482
        ]
      }
    },
    {
      "type": "Feature",
      "properties": {
        "entity_key": "property:GI-0127",
        "entity_kind": "building",
        "entity_id": "GI-0127",
        "display_label": "Structure near 29.2423, -89.9790",
        "property_id": "GI-0127",
        "facility_id": null,
        "osm_element_type": "way",
        "osm_id": 1066812242,
        "query_longitude": -89.97896867092588,
        "query_latitude": 29.242269255194135,
        "representative_point_method": "area-centroid-inside",
        "elevation_status": "available",
        "ground_elevation_m": 0.754730582,
        "elevation_units": "meters",
        "elevation_source": "USGS 3D Elevation Program (3DEP) Elevation Point Query Service",
        "source_dataset": "USGS 3DEP dynamic elevation service",
        "elevation_service_endpoint": "https://epqs.nationalmap.gov/v1/json",
        "elevation_service_version": "v1",
        "query_wkid": 4326,
        "elevation_raster_id": 101773,
        "service_reported_resolution": 1,
        "resolution_note": "Raw resolution reported by EPQS; the response schema does not name a resolution unit or human-readable source work unit.",
        "source_acquisition_date": "2021-10-02",
        "source_acquisition_date_raw": "10/2/2021",
        "retrieved_at": "2026-08-26T20:37:46.134Z",
        "horizontal_reference_note": "Existing OSM longitude/latitude was submitted with WKID 4326. EPQS documentation describes point inputs as NAD 1983; no additional local datum transformation was applied in this experiment.",
        "vertical_reference_note": "EPQS does not return a vertical datum per point. USGS states that CONUS 3DEP DEMs are typically NAVD88, but the datum is not asserted here without work-unit or product metadata verification.",
        "accuracy_note": "USGS describes EPQS values as interpolated rather than surveyed and reports an overall service RMSE of 0.53 m; local accuracy varies with source data.",
        "interpretation_note": "Estimated/interpolated ground elevation from the USGS 3DEP elevation service at one representative coordinate. It is not flood depth, building height, floor or finished-floor elevation, structural elevation, FEMA Base Flood Elevation, vulnerability, safety, or current/future inundation.",
        "unavailable_reason": null
      },
      "geometry": {
        "type": "Point",
        "coordinates": [
          -89.97896867092588,
          29.242269255194135
        ]
      }
    },
    {
      "type": "Feature",
      "properties": {
        "entity_key": "property:GI-0025",
        "entity_kind": "building",
        "entity_id": "GI-0025",
        "display_label": "Structure near 29.2449, -89.9725",
        "property_id": "GI-0025",
        "facility_id": null,
        "osm_element_type": "way",
        "osm_id": 431047271,
        "query_longitude": -89.9725020684456,
        "query_latitude": 29.244885896441385,
        "representative_point_method": "area-centroid-inside",
        "elevation_status": "available",
        "ground_elevation_m": 0.832291305,
        "elevation_units": "meters",
        "elevation_source": "USGS 3D Elevation Program (3DEP) Elevation Point Query Service",
        "source_dataset": "USGS 3DEP dynamic elevation service",
        "elevation_service_endpoint": "https://epqs.nationalmap.gov/v1/json",
        "elevation_service_version": "v1",
        "query_wkid": 4326,
        "elevation_raster_id": 101773,
        "service_reported_resolution": 1,
        "resolution_note": "Raw resolution reported by EPQS; the response schema does not name a resolution unit or human-readable source work unit.",
        "source_acquisition_date": "2021-10-02",
        "source_acquisition_date_raw": "10/2/2021",
        "retrieved_at": "2026-08-26T20:37:56.687Z",
        "horizontal_reference_note": "Existing OSM longitude/latitude was submitted with WKID 4326. EPQS documentation describes point inputs as NAD 1983; no additional local datum transformation was applied in this experiment.",
        "vertical_reference_note": "EPQS does not return a vertical datum per point. USGS states that CONUS 3DEP DEMs are typically NAVD88, but the datum is not asserted here without work-unit or product metadata verification.",
        "accuracy_note": "USGS describes EPQS values as interpolated rather than surveyed and reports an overall service RMSE of 0.53 m; local accuracy varies with source data.",
        "interpretation_note": "Estimated/interpolated ground elevation from the USGS 3DEP elevation service at one representative coordinate. It is not flood depth, building height, floor or finished-floor elevation, structural elevation, FEMA Base Flood Elevation, vulnerability, safety, or current/future inundation.",
        "unavailable_reason": null
      },
      "geometry": {
        "type": "Point",
        "coordinates": [
          -89.9725020684456,
          29.244885896441385
        ]
      }
    },
    {
      "type": "Feature",
      "properties": {
        "entity_key": "facility:osm-node-367132153",
        "entity_kind": "community-public-safety-facility",
        "entity_id": "osm-node-367132153",
        "display_label": "Grand Isle Fire Department",
        "property_id": null,
        "facility_id": "osm-node-367132153",
        "osm_element_type": "node",
        "osm_id": 367132153,
        "query_longitude": -89.9987268,
        "query_latitude": 29.2308198,
        "representative_point_method": "source-point",
        "elevation_status": "available",
        "ground_elevation_m": 1.240329742,
        "elevation_units": "meters",
        "elevation_source": "USGS 3D Elevation Program (3DEP) Elevation Point Query Service",
        "source_dataset": "USGS 3DEP dynamic elevation service",
        "elevation_service_endpoint": "https://epqs.nationalmap.gov/v1/json",
        "elevation_service_version": "v1",
        "query_wkid": 4326,
        "elevation_raster_id": 113397,
        "service_reported_resolution": 1,
        "resolution_note": "Raw resolution reported by EPQS; the response schema does not name a resolution unit or human-readable source work unit.",
        "source_acquisition_date": "2021-10-02",
        "source_acquisition_date_raw": "10/2/2021",
        "retrieved_at": "2026-08-26T20:37:59.725Z",
        "horizontal_reference_note": "Existing OSM longitude/latitude was submitted with WKID 4326. EPQS documentation describes point inputs as NAD 1983; no additional local datum transformation was applied in this experiment.",
        "vertical_reference_note": "EPQS does not return a vertical datum per point. USGS states that CONUS 3DEP DEMs are typically NAVD88, but the datum is not asserted here without work-unit or product metadata verification.",
        "accuracy_note": "USGS describes EPQS values as interpolated rather than surveyed and reports an overall service RMSE of 0.53 m; local accuracy varies with source data.",
        "interpretation_note": "Estimated/interpolated ground elevation from the USGS 3DEP elevation service at one representative coordinate. It is not flood depth, building height, floor or finished-floor elevation, structural elevation, FEMA Base Flood Elevation, vulnerability, safety, or current/future inundation.",
        "unavailable_reason": null
      },
      "geometry": {
        "type": "Point",
        "coordinates": [
          -89.9987268,
          29.2308198
        ]
      }
    },
    {
      "type": "Feature",
      "properties": {
        "entity_key": "facility:osm-node-367133144",
        "entity_kind": "community-public-safety-facility",
        "entity_id": "osm-node-367133144",
        "display_label": "Grand Isle Police Department",
        "property_id": null,
        "facility_id": "osm-node-367133144",
        "osm_element_type": "node",
        "osm_id": 367133144,
        "query_longitude": -89.9980412,
        "query_latitude": 29.2339013,
        "representative_point_method": "source-point",
        "elevation_status": "available",
        "ground_elevation_m": 0.845386982,
        "elevation_units": "meters",
        "elevation_source": "USGS 3D Elevation Program (3DEP) Elevation Point Query Service",
        "source_dataset": "USGS 3DEP dynamic elevation service",
        "elevation_service_endpoint": "https://epqs.nationalmap.gov/v1/json",
        "elevation_service_version": "v1",
        "query_wkid": 4326,
        "elevation_raster_id": 113397,
        "service_reported_resolution": 1,
        "resolution_note": "Raw resolution reported by EPQS; the response schema does not name a resolution unit or human-readable source work unit.",
        "source_acquisition_date": "2021-10-02",
        "source_acquisition_date_raw": "10/2/2021",
        "retrieved_at": "2026-08-26T20:38:00.103Z",
        "horizontal_reference_note": "Existing OSM longitude/latitude was submitted with WKID 4326. EPQS documentation describes point inputs as NAD 1983; no additional local datum transformation was applied in this experiment.",
        "vertical_reference_note": "EPQS does not return a vertical datum per point. USGS states that CONUS 3DEP DEMs are typically NAVD88, but the datum is not asserted here without work-unit or product metadata verification.",
        "accuracy_note": "USGS describes EPQS values as interpolated rather than surveyed and reports an overall service RMSE of 0.53 m; local accuracy varies with source data.",
        "interpretation_note": "Estimated/interpolated ground elevation from the USGS 3DEP elevation service at one representative coordinate. It is not flood depth, building height, floor or finished-floor elevation, structural elevation, FEMA Base Flood Elevation, vulnerability, safety, or current/future inundation.",
        "unavailable_reason": null
      },
      "geometry": {
        "type": "Point",
        "coordinates": [
          -89.9980412,
          29.2339013
        ]
      }
    },
    {
      "type": "Feature",
      "properties": {
        "entity_key": "facility:osm-way-924797034",
        "entity_kind": "community-public-safety-facility",
        "entity_id": "osm-way-924797034",
        "display_label": "Town of Grand Isle",
        "property_id": null,
        "facility_id": "osm-way-924797034",
        "osm_element_type": "way",
        "osm_id": 924797034,
        "query_longitude": -89.99796338530071,
        "query_latitude": 29.233825302466006,
        "representative_point_method": "area-centroid-inside",
        "elevation_status": "available",
        "ground_elevation_m": 0.663307011,
        "elevation_units": "meters",
        "elevation_source": "USGS 3D Elevation Program (3DEP) Elevation Point Query Service",
        "source_dataset": "USGS 3DEP dynamic elevation service",
        "elevation_service_endpoint": "https://epqs.nationalmap.gov/v1/json",
        "elevation_service_version": "v1",
        "query_wkid": 4326,
        "elevation_raster_id": 113397,
        "service_reported_resolution": 1,
        "resolution_note": "Raw resolution reported by EPQS; the response schema does not name a resolution unit or human-readable source work unit.",
        "source_acquisition_date": "2021-10-02",
        "source_acquisition_date_raw": "10/2/2021",
        "retrieved_at": "2026-08-26T20:38:01.122Z",
        "horizontal_reference_note": "Existing OSM longitude/latitude was submitted with WKID 4326. EPQS documentation describes point inputs as NAD 1983; no additional local datum transformation was applied in this experiment.",
        "vertical_reference_note": "EPQS does not return a vertical datum per point. USGS states that CONUS 3DEP DEMs are typically NAVD88, but the datum is not asserted here without work-unit or product metadata verification.",
        "accuracy_note": "USGS describes EPQS values as interpolated rather than surveyed and reports an overall service RMSE of 0.53 m; local accuracy varies with source data.",
        "interpretation_note": "Estimated/interpolated ground elevation from the USGS 3DEP elevation service at one representative coordinate. It is not flood depth, building height, floor or finished-floor elevation, structural elevation, FEMA Base Flood Elevation, vulnerability, safety, or current/future inundation.",
        "unavailable_reason": null
      },
      "geometry": {
        "type": "Point",
        "coordinates": [
          -89.99796338530071,
          29.233825302466006
        ]
      }
    },
    {
      "type": "Feature",
      "properties": {
        "entity_key": "facility:osm-way-924801527",
        "entity_kind": "community-public-safety-facility",
        "entity_id": "osm-way-924801527",
        "display_label": "Grand Isle High School",
        "property_id": null,
        "facility_id": "osm-way-924801527",
        "osm_element_type": "way",
        "osm_id": 924801527,
        "query_longitude": -89.99833168587871,
        "query_latitude": 29.232966566706676,
        "representative_point_method": "area-centroid-inside",
        "elevation_status": "available",
        "ground_elevation_m": 0.644756854,
        "elevation_units": "meters",
        "elevation_source": "USGS 3D Elevation Program (3DEP) Elevation Point Query Service",
        "source_dataset": "USGS 3DEP dynamic elevation service",
        "elevation_service_endpoint": "https://epqs.nationalmap.gov/v1/json",
        "elevation_service_version": "v1",
        "query_wkid": 4326,
        "elevation_raster_id": 113397,
        "service_reported_resolution": 1,
        "resolution_note": "Raw resolution reported by EPQS; the response schema does not name a resolution unit or human-readable source work unit.",
        "source_acquisition_date": "2021-10-02",
        "source_acquisition_date_raw": "10/2/2021",
        "retrieved_at": "2026-08-26T20:38:16.653Z",
        "horizontal_reference_note": "Existing OSM longitude/latitude was submitted with WKID 4326. EPQS documentation describes point inputs as NAD 1983; no additional local datum transformation was applied in this experiment.",
        "vertical_reference_note": "EPQS does not return a vertical datum per point. USGS states that CONUS 3DEP DEMs are typically NAVD88, but the datum is not asserted here without work-unit or product metadata verification.",
        "accuracy_note": "USGS describes EPQS values as interpolated rather than surveyed and reports an overall service RMSE of 0.53 m; local accuracy varies with source data.",
        "interpretation_note": "Estimated/interpolated ground elevation from the USGS 3DEP elevation service at one representative coordinate. It is not flood depth, building height, floor or finished-floor elevation, structural elevation, FEMA Base Flood Elevation, vulnerability, safety, or current/future inundation.",
        "unavailable_reason": null
      },
      "geometry": {
        "type": "Point",
        "coordinates": [
          -89.99833168587871,
          29.232966566706676
        ]
      }
    }
  ]
}
