{
  "type": "FeatureCollection",
  "name": "Fictional disaster resilience properties",
  "features": [
    {
      "type": "Feature",
      "properties": {
        "property_id": "PROP-001",
        "address_label": "Cypress Demo Home 01",
        "occupancy_type": "Fictional single-family residence",
        "evacuation_zone": "Mock Zone A",
        "nearest_shelter": "Cypress Community Safe Point (fictional)",
        "estimated_flood_depth_ft": 0.4,
        "risk_level": "Low",
        "recommended_action": "Mock decision-support example: monitor official sources and review household flood preparations; do not rely on this demonstration.",
        "data_source": "Synthetic local research data; not validated hazard data.",
        "confidence_note": "Synthetic value created for the research POC. It is not a measured or predicted flood depth.",
        "building_height_m": 6.5
      },
      "geometry": {
        "type": "Polygon",
        "coordinates": [
          [
            [-91.1552, 30.45175],
            [-91.15498, 30.45175],
            [-91.15498, 30.4519],
            [-91.1552, 30.4519],
            [-91.1552, 30.45175]
          ]
        ]
      }
    },
    {
      "type": "Feature",
      "properties": {
        "property_id": "PROP-002",
        "address_label": "Cypress Demo Home 02",
        "occupancy_type": "Fictional duplex residence",
        "evacuation_zone": "Mock Zone B",
        "nearest_shelter": "Cypress Community Safe Point (fictional)",
        "estimated_flood_depth_ft": 1.3,
        "risk_level": "Moderate",
        "recommended_action": "Mock decision-support example: prepare essential items and identify an official evacuation option; follow only verified local instructions.",
        "data_source": "Synthetic local research data; not validated hazard data.",
        "confidence_note": "Synthetic value created for the research POC. Local elevation and drainage are not modeled.",
        "building_height_m": 7.2
      },
      "geometry": {
        "type": "Polygon",
        "coordinates": [
          [
            [-91.15482, 30.45175],
            [-91.1546, 30.45175],
            [-91.1546, 30.4519],
            [-91.15482, 30.4519],
            [-91.15482, 30.45175]
          ]
        ]
      }
    },
    {
      "type": "Feature",
      "properties": {
        "property_id": "PROP-003",
        "address_label": "Cypress Demo Home 03",
        "occupancy_type": "Fictional small multifamily residence",
        "evacuation_zone": "Mock Zone C",
        "nearest_shelter": "Cypress Community Safe Point (fictional)",
        "estimated_flood_depth_ft": 2.8,
        "risk_level": "High",
        "recommended_action": "Mock decision-support example: prioritize early readiness and seek official evacuation guidance; this demonstration is not an evacuation order.",
        "data_source": "Synthetic local research data; not validated hazard data.",
        "confidence_note": "Synthetic value created for the research POC. It must not be used for emergency decisions.",
        "building_height_m": 9.2
      },
      "geometry": {
        "type": "Polygon",
        "coordinates": [
          [
            [-91.15444, 30.45175],
            [-91.15422, 30.45175],
            [-91.15422, 30.4519],
            [-91.15444, 30.4519],
            [-91.15444, 30.45175]
          ]
        ]
      }
    },
    {
      "type": "Feature",
      "properties": {
        "property_id": "PROP-004",
        "address_label": "Bayou Demo Cottage 04",
        "occupancy_type": "Fictional single-family residence",
        "evacuation_zone": "Mock Zone A",
        "nearest_shelter": "Cypress Community Safe Point (fictional)",
        "estimated_flood_depth_ft": 0.8,
        "risk_level": "Low",
        "recommended_action": "Mock decision-support example: protect movable outdoor items and monitor official sources; do not rely on this demonstration.",
        "data_source": "Synthetic local research data; not validated hazard data.",
        "confidence_note": "Synthetic value created for the research POC. Parcel and building geometry are fictional.",
        "building_height_m": 6.8
      },
      "geometry": {
        "type": "Polygon",
        "coordinates": [
          [
            [-91.1552, 30.45135],
            [-91.15498, 30.45135],
            [-91.15498, 30.4515],
            [-91.1552, 30.4515],
            [-91.1552, 30.45135]
          ]
        ]
      }
    },
    {
      "type": "Feature",
      "properties": {
        "property_id": "PROP-005",
        "address_label": "Bayou Demo Residence 05",
        "occupancy_type": "Fictional duplex residence",
        "evacuation_zone": "Mock Zone C",
        "nearest_shelter": "Cypress Community Safe Point (fictional)",
        "estimated_flood_depth_ft": 3.4,
        "risk_level": "High",
        "recommended_action": "Mock decision-support example: avoid making travel decisions from this display and follow official evacuation instructions if issued.",
        "data_source": "Synthetic local research data; not validated hazard data.",
        "confidence_note": "Synthetic value created for the research POC. It is not real HEC-RAS output.",
        "building_height_m": 7.5
      },
      "geometry": {
        "type": "Polygon",
        "coordinates": [
          [
            [-91.15482, 30.45135],
            [-91.1546, 30.45135],
            [-91.1546, 30.4515],
            [-91.15482, 30.4515],
            [-91.15482, 30.45135]
          ]
        ]
      }
    },
    {
      "type": "Feature",
      "properties": {
        "property_id": "PROP-006",
        "address_label": "Bayou Demo Apartments 06",
        "occupancy_type": "Fictional small multifamily residence",
        "evacuation_zone": "Mock Zone B",
        "nearest_shelter": "Cypress Community Safe Point (fictional)",
        "estimated_flood_depth_ft": 2.0,
        "risk_level": "Moderate",
        "recommended_action": "Mock decision-support example: review household assistance needs and follow only verified local instructions.",
        "data_source": "Synthetic local research data; not validated hazard data.",
        "confidence_note": "Synthetic value created for the research POC. No residents, structures, or hazards are represented.",
        "building_height_m": 8.6
      },
      "geometry": {
        "type": "Polygon",
        "coordinates": [
          [
            [-91.15444, 30.45135],
            [-91.15422, 30.45135],
            [-91.15422, 30.4515],
            [-91.15444, 30.4515],
            [-91.15444, 30.45135]
          ]
        ]
      }
    }
  ]
}
