{"type":"FeatureCollection","features":[{"type":"Feature","properties":{"id":"route-grand-isle-la1","name":"Grand Isle to mainland via LA Highway 1","feature_kind":"route","status":"at-risk","description":"Real LA-1 road geometry (OpenStreetMap) connecting Grand Isle to the mainland at Golden Meadow / Galliano / Larose. Status is an illustrative research judgment based on this corridor's well-documented storm-surge/overtopping history, not live road-condition data."},"geometry":{"type":"LineString","coordinates":[[-89.9870909,29.2368392],[-90.2053449,29.2465138],[-90.2601093,29.3804016],[-90.300909,29.4421457],[-90.3749483,29.5682491]]}},{"type":"Feature","properties":{"id":"route-port-fourchon-la1","name":"Port Fourchon to mainland via LA Highway 1","feature_kind":"route","status":"at-risk","description":"Real LA-1 road geometry (OpenStreetMap) connecting the Port Fourchon facility area to the mainland at Golden Meadow / Galliano / Larose. Status is an illustrative research judgment, not live road-condition data."},"geometry":{"type":"LineString","coordinates":[[-90.1784079,29.1579954],[-90.2053449,29.2465138],[-90.2601093,29.3804016],[-90.300909,29.4421457],[-90.3749483,29.5682491]]}},{"type":"Feature","properties":{"id":"resource-golden-meadow","name":"Golden Meadow, LA (regional staging reference)","feature_kind":"resource","resource_type":"staging-reference","description":"Approximate town-center reference point along the LA-1 corridor. Not an official shelter or emergency destination."},"geometry":{"type":"Point","coordinates":[-90.2662,29.3808]}},{"type":"Feature","properties":{"id":"resource-galliano","name":"Galliano, LA (regional staging reference)","feature_kind":"resource","resource_type":"staging-reference","description":"Approximate town-center reference point along the LA-1 corridor. Not an official shelter or emergency destination."},"geometry":{"type":"Point","coordinates":[-90.2988,29.4427]}},{"type":"Feature","properties":{"id":"resource-larose","name":"Larose, LA (regional staging reference)","feature_kind":"resource","resource_type":"staging-reference","description":"Approximate town-center reference point along the LA-1 corridor. Not an official shelter or emergency destination."},"geometry":{"type":"Point","coordinates":[-90.3757,29.5661]}}]}